<?xml version="1.0" encoding="UTF-8"?>
<kml xmlns="http://www.opengis.net/kml/2.2"
     xmlns:gx="http://www.google.com/kml/ext/2.2">
  <Document>
    <name>JaVelo</name>
    <Style id="byBikeStyle">
      <LineStyle>
        <color>a00000ff</color>
        <width>4</width>
      </LineStyle>
    </Style>
    <Placemark>
      <name>Path</name>
      <styleUrl>#byBikeStyle</styleUrl>
      <MultiGeometry>
        <LineString>
          <tessellate>1</tessellate>
          <coordinates>
            6.62749,46.50702
            6.62772,46.50700
            6.62773,46.50707
            6.62754,46.50708
            6.62738,46.50709
            6.62744,46.50714
            6.62744,46.50720
            6.62742,46.50732
            6.62739,46.50751
            6.62737,46.50763
            6.62736,46.50774
            6.62736,46.50777
            6.62737,46.50789
            6.62739,46.50802
            6.62741,46.50808
            6.62743,46.50815
            6.62684,46.50825
            6.62722,46.50951
            6.62730,46.50962
            6.62742,46.51005
            6.62747,46.51013
            6.62802,46.51190
            6.62809,46.51197
            6.62825,46.51248
            6.62842,46.51302
            6.62855,46.51347
            6.62853,46.51351
            6.62870,46.51412
            6.62875,46.51429
            6.62886,46.51469
            6.62889,46.51477
            6.62892,46.51478
            6.62898,46.51493
            6.62915,46.51534
            6.62919,46.51543
            6.62899,46.51549
            6.62898,46.51549
            6.62892,46.51551
            6.62885,46.51553
            6.62873,46.51557
            6.62829,46.51571
            6.62772,46.51586
            6.62701,46.51606
            6.62692,46.51608
            6.62654,46.51620
            6.62617,46.51632
            6.62601,46.51637
            6.62610,46.51645
            6.62634,46.51670
            6.62652,46.51690
            6.62689,46.51731
            6.62698,46.51737
            6.62707,46.51741
            6.62717,46.51743
            6.62778,46.51748
            6.62786,46.51748
            6.62788,46.51748
            6.62785,46.51753
            6.62782,46.51755
            6.62795,46.51757
            6.62797,46.51758
            6.62799,46.51759
            6.62800,46.51762
            6.62798,46.51765
            6.62802,46.51766
            6.62809,46.51769
            6.62801,46.51774
            6.62783,46.51783
            6.62616,46.51849
            6.62597,46.51856
            6.62584,46.51862
            6.62569,46.51869
            6.62557,46.51874
            6.62499,46.51899
            6.62482,46.51906
            6.62436,46.51925
            6.62406,46.51937
            6.62403,46.51939
            6.62390,46.51944
            6.62362,46.51955
            6.62355,46.51958
            6.62346,46.51962
            6.62287,46.51988
            6.62265,46.51996
            6.62256,46.52004
            6.62253,46.52009
            6.62252,46.52013
            6.62252,46.52022
            6.62253,46.52031
            6.62275,46.52062
            6.62285,46.52076
            6.62295,46.52090
            6.62301,46.52098
            6.62303,46.52102
            6.62306,46.52106
            6.62314,46.52119
            6.62322,46.52132
            6.62327,46.52139
            6.62333,46.52148
            6.62354,46.52177
            6.62415,46.52265
            6.62448,46.52312
            6.62450,46.52316
            6.62452,46.52318
            6.62461,46.52329
            6.62471,46.52341
            6.62473,46.52344
            6.62476,46.52347
            6.62500,46.52342
            6.62508,46.52342
            6.62509,46.52346
            6.62575,46.52331
            6.62577,46.52331
            6.62617,46.52322
            6.62645,46.52315
            6.62650,46.52313
            6.62668,46.52313
            6.62680,46.52308
            6.62687,46.52306
            6.62707,46.52297
            6.62733,46.52288
            6.62759,46.52279
            6.62771,46.52274
            6.62800,46.52264
            6.62825,46.52255
            6.62841,46.52249
            6.62842,46.52249
            6.62868,46.52240
            6.62873,46.52238
            6.62892,46.52231
            6.62909,46.52225
            6.62916,46.52222
            6.62919,46.52221
            6.62939,46.52214
            6.62952,46.52207
            6.62954,46.52206
            6.62963,46.52213
            6.62974,46.52220
            6.62979,46.52221
            6.63004,46.52228
            6.63036,46.52235
            6.63042,46.52237
            6.63048,46.52238
            6.63069,46.52239
            6.63079,46.52243
            6.63095,46.52248
            6.63116,46.52256
            6.63134,46.52264
            6.63149,46.52275
            6.63163,46.52287
            6.63171,46.52298
            6.63170,46.52306
            6.63175,46.52313
            6.63179,46.52313
            6.63184,46.52314
            6.63191,46.52316
            6.63196,46.52318
            6.63201,46.52322
            6.63218,46.52322
            6.63223,46.52322
            6.63228,46.52323
            6.63230,46.52324
            6.63233,46.52327
            6.63245,46.52346
            6.63248,46.52351
            6.63254,46.52359
            6.63261,46.52368
            6.63265,46.52374
            6.63282,46.52400
            6.63286,46.52402
            6.63290,46.52403
            6.63293,46.52403
            6.63295,46.52403
            6.63302,46.52401
            6.63304,46.52402
            6.63305,46.52402
            6.63308,46.52402
            6.63311,46.52401
            6.63323,46.52397
            6.63334,46.52394
            6.63339,46.52393
            6.63343,46.52394
            6.63346,46.52395
            6.63349,46.52397
            6.63386,46.52423
            6.63388,46.52425
            6.63394,46.52429
            6.63405,46.52436
            6.63410,46.52438
            6.63431,46.52444
            6.63439,46.52449
            6.63448,46.52454
            6.63459,46.52462
            6.63471,46.52469
            6.63482,46.52475
            6.63511,46.52490
            6.63519,46.52495
            6.63531,46.52502
            6.63583,46.52528
            6.63590,46.52533
            6.63591,46.52537
            6.63597,46.52553
            6.63595,46.52561
            6.63596,46.52565
            6.63600,46.52573
            6.63602,46.52582
            6.63601,46.52585
            6.63597,46.52593
            6.63594,46.52600
            6.63592,46.52604
            6.63589,46.52610
            6.63588,46.52613
            6.63583,46.52624
            6.63581,46.52628
            6.63578,46.52631
            6.63575,46.52634
            6.63569,46.52637
            6.63561,46.52640
            6.63522,46.52655
            6.63514,46.52659
            6.63503,46.52665
            6.63494,46.52671
            6.63442,46.52706
            6.63412,46.52724
            6.63407,46.52728
            6.63401,46.52733
            6.63398,46.52737
            6.63394,46.52745
            6.63392,46.52750
            6.63392,46.52755
            6.63392,46.52760
            6.63394,46.52766
            6.63397,46.52779
            6.63398,46.52789
            6.63397,46.52804
            6.63394,46.52830
            6.63394,46.52834
            6.63396,46.52837
            6.63399,46.52839
            6.63401,46.52840
            6.63404,46.52840
            6.63408,46.52839
            6.63412,46.52838
            6.63415,46.52835
            6.63416,46.52830
            6.63415,46.52815
            6.63426,46.52779
            6.63431,46.52769
            6.63435,46.52765
            6.63440,46.52761
            6.63446,46.52757
            6.63453,46.52755
            6.63460,46.52753
            6.63477,46.52750
            6.63487,46.52749
            6.63496,46.52749
            6.63506,46.52749
            6.63516,46.52751
            6.63525,46.52753
            6.63532,46.52756
            6.63541,46.52761
            6.63556,46.52771
            6.63570,46.52782
            6.63585,46.52809
            6.63594,46.52848
            6.63611,46.52921
            6.63617,46.52954
            6.63618,46.52967
            6.63619,46.52980
            6.63620,46.52993
            6.63616,46.53010
            6.63615,46.53017
            6.63613,46.53023
            6.63611,46.53030
            6.63609,46.53035
            6.63607,46.53044
            6.63604,46.53051
            6.63599,46.53063
            6.63574,46.53095
            6.63571,46.53100
            6.63568,46.53104
            6.63551,46.53128
            6.63550,46.53130
            6.63544,46.53144
            6.63540,46.53154
            6.63537,46.53163
            6.63535,46.53178
            6.63535,46.53192
            6.63536,46.53201
            6.63540,46.53232
            6.63541,46.53244
            6.63543,46.53267
            6.63544,46.53280
            6.63544,46.53288
            6.63545,46.53291
            6.63545,46.53302
            6.63546,46.53307
            6.63549,46.53374
            6.63548,46.53382
            6.63543,46.53488
            6.63543,46.53494
            6.63543,46.53501
            6.63546,46.53553
            6.63544,46.53567
            6.63540,46.53581
            6.63536,46.53591
            6.63528,46.53609
            6.63523,46.53618
            6.63516,46.53625
            6.63519,46.53629
            6.63519,46.53635
            6.63525,46.53636
            6.63528,46.53636
            6.63524,46.53650
            6.63528,46.53656
            6.63543,46.53661
            6.63545,46.53670
            6.63555,46.53672
            6.63563,46.53672
            6.63569,46.53670
            6.63575,46.53670
            6.63577,46.53673
            6.63578,46.53676
            6.63580,46.53680
            6.63583,46.53681
            6.63587,46.53680
            6.63595,46.53680
            6.63607,46.53684
            6.63628,46.53693
            6.63639,46.53696
            6.63642,46.53691
            6.63654,46.53680
            6.63680,46.53665
            6.63705,46.53655
            6.63732,46.53644
            6.63749,46.53647
            6.63768,46.53654
            6.63789,46.53664
            6.63807,46.53675
            6.63826,46.53683
            6.63847,46.53687
            6.63873,46.53686
            6.63883,46.53686
            6.63891,46.53688
            6.63900,46.53691
            6.63898,46.53685
            6.63895,46.53667
            6.63893,46.53658
            6.63889,46.53647
            6.63882,46.53634
            6.63868,46.53610
            6.63860,46.53592
            6.63859,46.53581
            6.63863,46.53565
            6.63865,46.53555
            6.63869,46.53547
          </coordinates>
        </LineString>
      </MultiGeometry>
    </Placemark>
  </Document>
</kml>
